NORAD_CAT_ID,OBJECT_NAME,OBJECT_TYPE,EPOCH,MEAN_MOTION,ECCENTRICITY,INCLINATION,RA_OF_ASC_NODE,ARG_OF_PERICENTER,MEAN_ANOMALY,BSTAR,MEAN_MOTION_DOT,MEAN_MOTION_DDOT,TLE_LINE0,TLE_LINE1,TLE_LINE2,SEMIMAJOR_AXIS,PERIOD,APOGEE,PERIGEE,DECAYED
50161.0,STARLINK-3304,PAYLOAD,2024-05-09 09:58:45,15.08841476,0.0001686,53.2172,23.6104,92.2031,267.9154,0.00018281,2.623e-05,0.0,0 STARLINK-3304,1 50161U 21125F   24130.41580476  .00002623  00000-0  18281-3 0  9995,2 50161  53.2172  23.6104 0001686  92.2031 267.9154 15.08841476134937,6917.876,95.437,540.907,538.575,0.0
50161.0,STARLINK-3304,PAYLOAD,2024-05-09 22:41:50,15.0883756,0.0001438,53.2183,21.2302,89.7214,270.3943,0.00014981,2.097e-05,0.0,0 STARLINK-3304,1 50161U 21125F   24130.94572817  .00002097  00000-0  14981-3 0  9991,2 50161  53.2183  21.2302 0001438  89.7214 270.3943 15.08837560135497,6917.888,95.438,540.748,538.758,0.0
50161.0,STARLINK-3304,PAYLOAD,2024-05-10 09:49:32,15.08841501,0.0001195,53.2182,19.148,86.7701,273.3428,7.9542e-05,9.78e-06,0.0,0 STARLINK-3304,1 50161U 21125F   24131.40940606  .00000978  00000-0  79542-4 0  9999,2 50161  53.2182  19.1480 0001195  86.7701 273.3428 15.08841501135083,6917.876,95.437,540.567,538.914,0.0
50161.0,STARLINK-3304,PAYLOAD,2024-05-10 22:32:37,15.08848629,0.0001293,53.2172,16.7707,88.9871,271.1269,9.3078e-05,1.194e-05,0.0,0 STARLINK-3304,1 50161U 21125F   24131.93932401  .00001194  00000-0  93078-4 0  9992,2 50161  53.2172  16.7707 0001293  88.9871 271.1269 15.08848629135647,6917.854,95.437,540.613,538.825,0.0
50161.0,STARLINK-3304,PAYLOAD,2024-05-11 00:08:00,15.08869217,0.0001427,53.2201,16.4693,81.6772,278.4382,0.00047779,7.33e-05,0.0,0 STARLINK-3304,1 50161U 21125F   24132.00555746  .00007330  00000-0  47779-3 0  9998,2 50161  53.2201  16.4693 0001427  81.6772 278.4382 15.08869217135170,6917.791,95.436,540.643,538.669,0.0
50161.0,STARLINK-3304,PAYLOAD,2024-05-11 22:23:21,15.08892506,0.00013,53.2195,12.3088,97.7883,262.3257,0.00069274,0.0001077,0.0,0 STARLINK-3304,1 50161U 21125F   24132.93288416  .00010770  00000-0  69274-3 0  9993,2 50161  53.2195  12.3088 0001300  97.7883 262.3257 15.08892506135794,6917.72,95.434,540.484,538.686,0.0
50161.0,STARLINK-3304,PAYLOAD,2024-05-12 09:31:01,15.08901217,0.0001625,53.2186,10.2267,99.8624,260.2551,0.00056855,8.787e-05,0.0,0 STARLINK-3304,1 50161U 21125F   24133.39654424  .00008787  00000-0  56855-3 0  9996,2 50161  53.2186  10.2267 0001625  99.8624 260.2551 15.08901217135868,6917.693,95.434,540.682,538.434,0.0
50161.0,STARLINK-3304,PAYLOAD,2024-05-12 22:14:13,15.08778856,0.0001245,53.2186,7.85,79.3707,280.7425,-0.0010862,-0.00017504,0.0,0 STARLINK-3304,1 50161U 21125F   24133.92654416 -.00017504  00000-0 -10862-2 0  9992,2 50161  53.2186   7.8500 0001245  79.3707 280.7425 15.08778856135467,6918.067,95.441,540.794,539.071,0.0
50161.0,STARLINK-3304,PAYLOAD,2024-05-13 15:43:28,15.08807494,0.0001174,53.2192,4.5779,95.1198,264.9928,8.8204e-05,1.115e-05,0.0,0 STARLINK-3304,1 50161U 21125F   24134.65518916  .00001115  00000-0  88204-4 0  9993,2 50161  53.2192   4.5779 0001174  95.1198 264.9928 15.08807494135572,6917.98,95.44,540.657,539.033,0.0
50161.0,STARLINK-3304,PAYLOAD,2024-05-14 13:58:52,15.08831786,0.000193,53.2177,0.4143,91.8827,268.2386,0.00087194,0.00013613,0.0,0 STARLINK-3304,1 50161U 21125F   24135.58255248  .00013613  00000-0  87194-3 0  9994,2 50161  53.2177   0.4143 0001930  91.8827 268.2386 15.08831786135719,6917.905,95.438,541.106,538.435,0.0
50161.0,STARLINK-3304,PAYLOAD,2024-05-14 21:55:47,15.08850987,0.0001258,53.2179,358.929,102.2249,257.8884,0.00089878,0.00014049,0.0,0 STARLINK-3304,1 50161U 21125F   24135.91373972  .00014049  00000-0  89878-3 0  9991,2 50161  53.2179 358.9290 0001258 102.2249 257.8884 15.08850987136243,6917.847,95.437,540.582,538.842,0.0
50161.0,STARLINK-3304,PAYLOAD,2024-05-15 07:28:05,15.08846561,0.0001651,53.2174,357.141,81.8893,278.2286,0.00030648,4.594e-05,0.0,0 STARLINK-3304,1 50161U 21125F   24136.31117648  .00004594  00000-0  30648-3 0  9997,2 50161  53.2174 357.1410 0001651  81.8893 278.2286 15.08846561135826,6917.86,95.437,540.867,538.583,0.0
50161.0,STARLINK-3304,PAYLOAD,2024-05-15 13:49:38,15.08853561,0.0002182,53.2172,355.9536,74.6975,285.4258,-8.2729e-05,-1.605e-05,0.0,0 STARLINK-3304,1 50161U 21125F   24136.57613480 -.00001605  00000-0 -82729-4 0  9990,2 50161  53.2172 355.9536 0002182  74.6975 285.4258 15.08853561136345,6917.839,95.437,541.213,538.194,0.0
50161.0,STARLINK-3304,PAYLOAD,2024-05-15 21:46:33,15.08852162,0.0001242,53.2168,354.4654,64.0317,296.0803,-7.4197e-05,-1.469e-05,0.0,0 STARLINK-3304,1 50161U 21125F   24136.90733151 -.00001469  00000-0 -74197-4 0  9993,2 50161  53.2168 354.4654 0001242  64.0317 296.0803 15.08852162136399,6917.843,95.437,540.567,538.849,0.0
50161.0,STARLINK-3304,PAYLOAD,2024-05-16 07:18:52,15.08839262,0.0001104,53.2166,352.6789,53.262,306.8474,9.1815e-05,1.174e-05,0.0,0 STARLINK-3304,1 50161U 21125F   24137.30477231  .00001174  00000-0  91815-4 0  9999,2 50161  53.2166 352.6789 0001104  53.2620 306.8474 15.08839262135973,6917.883,95.438,540.511,538.984,0.0
50161.0,STARLINK-3304,PAYLOAD,2024-05-17 13:31:12,15.08841896,0.0003461,53.2166,347.0321,79.419,280.7192,0.00022063,3.225e-05,0.0,0 STARLINK-3304,1 50161U 21125F   24138.56334058  .00003225  00000-0  22063-3 0  9994,2 50161  53.2166 347.0321 0003461  79.4190 280.7192 15.08841896136168,6917.875,95.437,542.134,537.345,0.0
50161.0,STARLINK-3304,PAYLOAD,2024-05-18 13:21:59,15.0884116,6.78e-05,53.2162,342.5693,90.364,269.7429,0.00016289,2.306e-05,0.0,0 STARLINK-3304,1 50161U 21125F   24139.55693574  .00002306  00000-0  16289-3 0  9997,2 50161  53.2162 342.5693 0000678  90.3640 269.7429 15.08841160136316,6917.877,95.437,540.211,539.273,0.0
50161.0,STARLINK-3304,PAYLOAD,2024-05-18 19:43:31,15.08859898,0.0002136,53.2123,341.3826,81.4174,278.706,0.00032646,4.914e-05,0.0,0 STARLINK-3304,1 50161U 21125F   24139.82188960  .00004914  00000-0  32646-3 0  9997,2 50161  53.2123 341.3826 0002136  81.4174 278.7060 15.08859898136354,6917.82,95.436,541.162,538.207,0.0
50161.0,STARLINK-3304,PAYLOAD,2024-05-19 19:34:19,15.08833448,0.0001125,53.2168,336.9207,67.0798,293.0312,-1.7706e-05,-5.7e-06,0.0,0 STARLINK-3304,1 50161U 21125F   24140.81550281 -.00000570  00000-0 -17706-4 0  9994,2 50161  53.2168 336.9207 0001125  67.0798 293.0312 15.08833448136505,6917.9,95.438,540.544,538.987,0.0
50161.0,STARLINK-3304,PAYLOAD,2024-05-20 13:03:33,15.08841197,7.71e-05,53.2138,333.6518,73.3853,286.7224,-3.555e-05,-8.53e-06,0.0,0 STARLINK-3304,1 50161U 21125F   24141.54413929 -.00000853  00000-0 -35550-4 0  9993,2 50161  53.2138 333.6518 0000771  73.3853 286.7224 15.08841197136612,6917.877,95.437,540.275,539.208,0.0
50161.0,STARLINK-3304,PAYLOAD,2024-05-20 19:25:05,15.08854084,0.000137,53.217,332.4656,78.6779,281.4367,0.00011997,1.623e-05,0.0,0 STARLINK-3304,1 50161U 21125F   24141.80909361  .00001623  00000-0  11997-3 0  9994,2 50161  53.2170 332.4656 0001370  78.6779 281.4367 15.08854084136652,6917.837,95.437,540.65,538.755,0.0
50161.0,STARLINK-3304,PAYLOAD,2024-05-21 01:46:37,15.08868491,0.0001076,53.2164,331.2737,75.6936,284.4176,0.00056174,8.67e-05,0.0,0 STARLINK-3304,1 50161U 21125F   24142.07404720  .00008670  00000-0  56174-3 0  9998,2 50161  53.2164 331.2737 0001076  75.6936 284.4176 15.08868491136699,6917.793,95.436,540.403,538.914,0.0
50161.0,STARLINK-3304,PAYLOAD,2024-05-21 19:15:53,15.08838735,0.0001267,53.2163,328.006,64.4432,295.6691,5.4525e-05,5.8e-06,0.0,0 STARLINK-3304,1 50161U 21125F   24142.80270168  .00000580  00000-0  54525-4 0  9997,2 50161  53.2163 328.0060 0001267  64.4432 295.6691 15.08838735136807,6917.884,95.438,540.626,538.873,0.0
50161.0,STARLINK-3304,PAYLOAD,2024-05-22 11:09:44,15.08843492,0.0001313,53.2167,325.0278,65.2603,294.8525,0.00041621,6.343e-05,0.0,0 STARLINK-3304,1 50161U 21125F   24143.46510259  .00006343  00000-0  41621-3 0  9993,2 50161  53.2167 325.0278 0001313  65.2603 294.8525 15.08843492137387,6917.87,95.437,540.643,538.826,0.0
50161.0,STARLINK-3304,PAYLOAD,2024-05-23 20:32:50,15.08845592,0.0001168,53.2182,318.7815,86.6825,273.43,0.00025147,3.717e-05,0.0,0 STARLINK-3304,1 50161U 21125F   24144.85614280  .00003717  00000-0  25147-3 0  9993,2 50161  53.2182 318.7815 0001168  86.6825 273.4300 15.08845592137119,6917.863,95.437,540.536,538.92,0.0
50161.0,STARLINK-3304,PAYLOAD,2024-05-24 10:51:19,15.08838637,0.0001521,53.2186,316.1088,92.698,267.4186,0.00014526,2.025e-05,0.0,0 STARLINK-3304,1 50161U 21125F   24145.45230586  .00002025  00000-0  14526-3 0  9993,2 50161  53.2186 316.1088 0001521  92.6980 267.4186 15.08838637137206,6917.885,95.438,540.802,538.697,0.0
50161.0,STARLINK-3304,PAYLOAD,2024-05-24 20:23:37,15.088576,9.23e-05,53.2167,314.3195,135.3311,224.7755,0.00048666,7.47e-05,0.0,0 STARLINK-3304,1 50161U 21125F   24145.84973741  .00007470  00000-0  48666-3 0  9994,2 50161  53.2167 314.3195 0000923 135.3311 224.7755 15.08857600137267,6917.827,95.436,540.33,539.053,0.0
50161.0,STARLINK-3304,PAYLOAD,2024-05-25 10:42:06,15.08832936,0.0001175,53.2166,311.6451,104.4613,255.6509,-8.941e-05,-1.71e-05,0.0,0 STARLINK-3304,1 50161U 21125F   24146.44590653 -.00001710  00000-0 -89410-4 0  9994,2 50161  53.2166 311.6451 0001175 104.4613 255.6509 15.08832936137358,6917.902,95.438,540.58,538.954,0.0
50161.0,STARLINK-3304,PAYLOAD,2024-05-26 10:32:53,15.08838043,8.26e-05,53.2173,307.1855,76.4931,283.6153,8.4663e-05,1.06e-05,0.0,0 STARLINK-3304,1 50161U 21125F   24147.43951099  .00001060  00000-0  84663-4 0  9990,2 50161  53.2173 307.1855 0000826  76.4931 283.6153 15.08838043137987,6917.886,95.438,540.323,539.18,0.0
50161.0,STARLINK-3304,PAYLOAD,2024-05-26 20:05:12,15.08849183,0.0001072,53.2169,305.4024,73.9989,286.1121,0.00042682,6.513e-05,0.0,0 STARLINK-3304,1 50161U 21125F   24147.83694864  .00006513  00000-0  42682-3 0  9990,2 50161  53.2169 305.4024 0001072  73.9989 286.1121 15.08849183137564,6917.852,95.437,540.459,538.976,0.0
